{
  "type": "FeatureCollection",
  "features": [
    {
      "type": "Feature",
      "properties": {
        "norad_id": 22490,
        "name": "SCD 1",
        "group": "resource",
        "lat": 2.1989259907799887,
        "lon": -38.72827922257879,
        "alt_km": 744.3199126342097,
        "timestamp": "2025-12-06T14:35:36.783777+00:00",
        "meta_object_name": "SCD 1",
        "meta_object_id": "1993-009B",
        "meta_epoch": "2025-12-06T06:24:53.284032",
        "meta_mean_motion": 14.4599191,
        "meta_eccentricity": 0.00417472,
        "meta_inclination": 24.9708,
        "meta_ra_of_asc_node": 318.6416,
        "meta_arg_of_pericenter": 256.1513,
        "meta_mean_anomaly": 131.0889,
        "meta_ephemeris_type": 0,
        "meta_classification_type": "U",
        "meta_norad_cat_id": 22490,
        "meta_element_set_no": 999,
        "meta_rev_at_epoch": 73316,
        "meta_bstar": 0.00018433233,
        "meta_mean_motion_dot": 8.61e-06,
        "meta_mean_motion_ddot": 0,
        "tle_line1": "1 22490U 93009B   25340.26728338  .00000861  00000+0  18433-3 0  9997",
        "tle_line2": "2 22490  24.9708 318.6416 0041747 256.1513 131.0889 14.45991910733167"
      },
      "geometry": {
        "type": "Point",
        "coordinates": [
          -38.72827922257879,
          2.1989259907799887
        ]
      }
    },
    {
      "type": "Feature",
      "properties": {
        "norad_id": 25397,
        "name": "TECHSAT 1B (GO-32)",
        "group": "resource",
        "lat": 63.5057160806601,
        "lon": -54.84153159036535,
        "alt_km": 802.7865947973296,
        "timestamp": "2025-12-06T14:35:36.783803+00:00",
        "meta_object_name": "TECHSAT 1B (GO-32)",
        "meta_object_id": "1998-043D",
        "meta_epoch": "2025-12-05T23:06:59.931360",
        "meta_mean_motion": 14.24374078,
        "meta_eccentricity": 0.00021938,
        "meta_inclination": 98.9913,
        "meta_ra_of_asc_node": 323.0191,
        "meta_arg_of_pericenter": 68.3307,
        "meta_mean_anomaly": 291.8105,
        "meta_ephemeris_type": 0,
        "meta_classification_type": "U",
        "meta_norad_cat_id": 25397,
        "meta_element_set_no": 999,
        "meta_rev_at_epoch": 42382,
        "meta_bstar": 0.00010199191,
        "meta_mean_motion_dot": 1.89e-06,
        "meta_mean_motion_ddot": 0,
        "tle_line1": "1 25397U 98043D   25339.96319365  .00000189  00000+0  10199-3 0  9994",
        "tle_line2": "2 25397  98.9913 323.0191 0002193  68.3307 291.8105 14.24374078423823"
      },
      "geometry": {
        "type": "Point",
        "coordinates": [
          -54.84153159036535,
          63.5057160806601
        ]
      }
    },
    {
      "type": "Feature",
      "properties": {
        "norad_id": 25504,
        "name": "SCD 2",
        "group": "resource",
        "lat": 18.783640008859035,
        "lon": -133.40175254680886,
        "alt_km": 747.1667539412356,
        "timestamp": "2025-12-06T14:35:36.783819+00:00",
        "meta_object_name": "SCD 2",
        "meta_object_id": "1998-060A",
        "meta_epoch": "2025-12-06T06:49:19.147296",
        "meta_mean_motion": 14.45417912,
        "meta_eccentricity": 0.00166061,
        "meta_inclination": 24.9935,
        "meta_ra_of_asc_node": 181.7026,
        "meta_arg_of_pericenter": 244.517,
        "meta_mean_anomaly": 276.7453,
        "meta_ephemeris_type": 0,
        "meta_classification_type": "U",
        "meta_norad_cat_id": 25504,
        "meta_element_set_no": 999,
        "meta_rev_at_epoch": 43238,
        "meta_bstar": 0.00013765331,
        "meta_mean_motion_dot": 6.75e-06,
        "meta_mean_motion_ddot": 0,
        "tle_line1": "1 25504U 98060A   25340.28424939  .00000675  00000+0  13765-3 0  9996",
        "tle_line2": "2 25504  24.9935 181.7026 0016606 244.5170 276.7453 14.45417912432389"
      },
      "geometry": {
        "type": "Point",
        "coordinates": [
          -133.40175254680886,
          18.783640008859035
        ]
      }
    },
    {
      "type": "Feature",
      "properties": {
        "norad_id": 25757,
        "name": "DLR-TUBSAT",
        "group": "resource",
        "lat": 26.287714278423806,
        "lon": -39.38261600910784,
        "alt_km": 726.5786743863982,
        "timestamp": "2025-12-06T14:35:36.783832+00:00",
        "meta_object_name": "DLR-TUBSAT",
        "meta_object_id": "1999-029B",
        "meta_epoch": "2025-12-06T04:33:01.294848",
        "meta_mean_motion": 14.52353701,
        "meta_eccentricity": 0.00135413,
        "meta_inclination": 98.6557,
        "meta_ra_of_asc_node": 324.5014,
        "meta_arg_of_pericenter": 213.3546,
        "meta_mean_anomaly": 146.6796,
        "meta_ephemeris_type": 0,
        "meta_classification_type": "U",
        "meta_norad_cat_id": 25757,
        "meta_element_set_no": 999,
        "meta_rev_at_epoch": 40523,
        "meta_bstar": 7.9285525e-05,
        "meta_mean_motion_dot": 2.75e-06,
        "meta_mean_motion_ddot": 0,
        "tle_line1": "1 25757U 99029B   25340.18959832  .00000275  00000+0  79286-4 0  9993",
        "tle_line2": "2 25757  98.6557 324.5014 0013541 213.3546 146.6796 14.52353701405239"
      },
      "geometry": {
        "type": "Point",
        "coordinates": [
          -39.38261600910784,
          26.287714278423806
        ]
      }
    },
    {
      "type": "Feature",
      "properties": {
        "norad_id": 25994,
        "name": "TERRA",
        "group": "resource",
        "lat": -78.4482292267106,
        "lon": 169.2079783001395,
        "alt_km": 699.6462422898694,
        "timestamp": "2025-12-06T14:35:36.783843+00:00",
        "meta_object_name": "TERRA",
        "meta_object_id": "1999-068A",
        "meta_epoch": "2025-12-06T07:06:33.235200",
        "meta_mean_motion": 14.60941687,
        "meta_eccentricity": 0.00034881,
        "meta_inclination": 97.9757,
        "meta_ra_of_asc_node": 32.2169,
        "meta_arg_of_pericenter": 110.7977,
        "meta_mean_anomaly": 311.6416,
        "meta_ephemeris_type": 0,
        "meta_classification_type": "U",
        "meta_norad_cat_id": 25994,
        "meta_element_set_no": 999,
        "meta_rev_at_epoch": 38144,
        "meta_bstar": 0.0002242901,
        "meta_mean_motion_dot": 1.054e-05,
        "meta_mean_motion_ddot": 0,
        "tle_line1": "1 25994U 99068A   25340.29621800  .00001054  00000+0  22429-3 0  9994",
        "tle_line2": "2 25994  97.9757  32.2169 0003488 110.7977 311.6416 14.60941687381441"
      },
      "geometry": {
        "type": "Point",
        "coordinates": [
          169.2079783001395,
          -78.4482292267106
        ]
      }
    },
    {
      "type": "Feature",
      "properties": {
        "norad_id": 27004,
        "name": "MAROC-TUBSAT",
        "group": "resource",
        "lat": 80.02306801359609,
        "lon": 69.95406446619532,
        "alt_km": 1005.1510712454728,
        "timestamp": "2025-12-06T14:35:36.783856+00:00",
        "meta_object_name": "MAROC-TUBSAT",
        "meta_object_id": "2001-056D",
        "meta_epoch": "2025-12-06T06:16:29.634240",
        "meta_mean_motion": 13.70252416,
        "meta_eccentricity": 0.0019093,
        "meta_inclination": 99.7911,
        "meta_ra_of_asc_node": 148.593,
        "meta_arg_of_pericenter": 277.4021,
        "meta_mean_anomaly": 261.763,
        "meta_ephemeris_type": 0,
        "meta_classification_type": "U",
        "meta_norad_cat_id": 27004,
        "meta_element_set_no": 999,
        "meta_rev_at_epoch": 19976,
        "meta_bstar": 3.8705499e-05,
        "meta_mean_motion_dot": -1.3e-07,
        "meta_mean_motion_ddot": 0,
        "tle_line1": "1 27004U 01056D   25340.26145410 -.00000013  00000+0  38705-4 0  9993",
        "tle_line2": "2 27004  99.7911 148.5930 0019093 277.4021 261.7630 13.70252416199764"
      },
      "geometry": {
        "type": "Point",
        "coordinates": [
          69.95406446619532,
          80.02306801359609
        ]
      }
    },
    {
      "type": "Feature",
      "properties": {
        "norad_id": 27424,
        "name": "AQUA",
        "group": "resource",
        "lat": 61.80622604389398,
        "lon": 137.39394805883234,
        "alt_km": 680.7552584700234,
        "timestamp": "2025-12-06T14:35:36.783868+00:00",
        "meta_object_name": "AQUA",
        "meta_object_id": "2002-022A",
        "meta_epoch": "2025-12-06T04:15:07.781760",
        "meta_mean_motion": 14.61784704,
        "meta_eccentricity": 8.907e-05,
        "meta_inclination": 98.4028,
        "meta_ra_of_asc_node": 300.9497,
        "meta_arg_of_pericenter": 112.7706,
        "meta_mean_anomaly": 257.994,
        "meta_ephemeris_type": 0,
        "meta_classification_type": "U",
        "meta_norad_cat_id": 27424,
        "meta_element_set_no": 999,
        "meta_rev_at_epoch": 25507,
        "meta_bstar": 0.00045681556,
        "meta_mean_motion_dot": 2.231e-05,
        "meta_mean_motion_ddot": 0,
        "tle_line1": "1 27424U 02022A   25340.17717340  .00002231  00000+0  45682-3 0  9994",
        "tle_line2": "2 27424  98.4028 300.9497 0000890 112.7706 257.9940 14.61784704255072"
      },
      "geometry": {
        "type": "Point",
        "coordinates": [
          137.39394805883234,
          61.80622604389398
        ]
      }
    }
  ]
}